GLOBALSTAR M045 [-]     
1 25676U 99019A   23264.55894465 -.00000066  00000+0  24332-3 0  9996
2 25676  51.9982 314.0271 0000806  56.2627  91.8774 12.27015673115481
GLOBALSTAR M019 [-]     
1 25677U 99019B   23264.56491564 -.00000204  00000+0 -11878-2 0  9996
2 25677  51.9897  39.7337 0001710 110.2087 330.1133 12.13843602108078
GLOBALSTAR M044 [-]     
1 25678U 99019C   23264.49183569 -.00000064  00000+0  27363-3 0  9992
2 25678  51.9953 271.9005 0006259 255.9101 271.9330 11.90222478 95747
GLOBALSTAR M042 [-]     
1 25679U 99019D   23264.61895359 -.00000059  00000+0  31640-3 0  9991
2 25679  52.0032  42.2963 0003831  78.3489   4.5212 12.22046797107678
GLOBALSTAR M025 [-]     
1 25770U 99031A   23264.25966906 -.00000032  00000+0  10871-2 0  9997
2 25770  51.9803 190.1138 0001010 130.4794  40.1237 11.22545068410402
GLOBALSTAR M049 [-]     
1 25771U 99031B   23264.24038091  .00000073  00000+0  48067-2 0  9994
2 25771  51.9858 193.0112 0003186  25.1545 334.9406 11.12099674 46781
GLOBALSTAR M047 [-]     
1 25772U 99031C   23264.39071660 -.00000048  00000+0  59359-3 0  9990
2 25772  51.9808 250.2867 0016203 253.7690 106.1333 11.31915353399224
GLOBALSTAR M052 [-]     
1 25773U 99031D   23264.46357247 -.00000101  00000+0 -11712-2 0  9998
2 25773  51.9885 310.1070 0002505 196.8342 268.1583 11.15045679407709
